QIANFAN-41              
1 62242U 24232F   25281.80749882  .00000126  00000+0  17601-3 0  9999
2 62242  89.0011  47.7357 0014318  26.3301 333.8575 13.50975757 90486
QIANFAN-42              
1 62243U 24232G   25281.79330135  .00000653  00000+0  27596-3 0  9994
2 62243  89.0009  44.7604 0012976 300.2301  59.7606 14.24382684 92123
QIANFAN-43              
1 62244U 24232H   25281.80342237  .00000122  00000+0  17046-3 0  9993
2 62244  89.0016  47.7985 0015987  30.7224 329.4860 13.50976831 59090
QIANFAN-44              
1 62245U 24232J   25281.79101830  .00000125  00000+0  17475-3 0  9993
2 62245  89.0014  47.6115 0014131  28.7347 331.4580 13.50978091 90565
QIANFAN-45              
1 62246U 24232K   25281.83221353  .00000118  00000+0  16339-3 0  9992
2 62246  89.0017  47.7516 0014755  27.9764 332.2177 13.50974715 90493
QIANFAN-46              
1 62247U 24232L   25281.85687714  .00000125  00000+0  17419-3 0  9990
2 62247  89.0013  47.8207 0015000  33.1067 327.1019 13.50975383 90453
QIANFAN-47              
1 62248U 24232M   25281.86101654  .00000128  00000+0  17884-3 0  9995
2 62248  89.0009  47.7559 0015393  32.1032 328.1053 13.50977115 90481
QIANFAN-48              
1 62249U 24232N   25281.82402975  .00000134  00000+0  18941-3 0  9994
2 62249  89.0013  47.7590 0017705  33.9052 326.3227 13.50972957 90484
